{"type": "FeatureCollection", "features": [ {"type": "Feature", "properties": {"norad_id": 33492, "name": "GOSAT (IBUKI)", "group": "resource", "lat": -51.22711934998653, "lon": -84.31892351092154, "alt_km": 676.3135264937009, "timestamp": "2025-12-23T09:49:06.733090+00:00", "meta": {"OBJECT_NAME": "GOSAT (IBUKI)", "OBJECT_ID": "2009-002A", "EPOCH": "2025-12-22T21:18:38.412576", "MEAN_MOTION": 14.67544123, "ECCENTRICITY": 0.00010033, "INCLINATION": 98.0771, "RA_OF_ASC_NODE": 105.3503, "ARG_OF_PERICENTER": 102.9826, "MEAN_ANOMALY": 257.1491, "EPHEMERIS_TYPE": 0, "CLASSIFICATION_TYPE": "U", "NORAD_CAT_ID": 33492, "ELEMENT_SET_NO": 999, "REV_AT_EPOCH": 90560, "BSTAR": 0.00015422711, "MEAN_MOTION_DOT": 8.27e-06, "MEAN_MOTION_DDOT": 0}, "tle": {"line1": "1 33492U 09002A   25356.88794459  .00000827  00000+0  15423-3 0  9991", "line2": "2 33492  98.0771 105.3503 0001003 102.9826 257.1491 14.67544123905600"}}, "geometry": {"type": "Point", "coordinates": [-84.31892351092154, -51.22711934998653]}}, {"type": "Feature", "properties": {"norad_id": 35681, "name": "DEIMOS-1", "group": "resource", "lat": -53.2278340425992, "lon": -32.93517387253498, "alt_km": 654.036275189047, "timestamp": "2025-12-23T09:49:06.733101+00:00", "meta": {"OBJECT_NAME": "DEIMOS-1", "OBJECT_ID": "2009-041A", "EPOCH": "2025-12-22T22:59:33.720288", "MEAN_MOTION": 14.74967944, "ECCENTRICITY": 0.000256, "INCLINATION": 97.7151, "RA_OF_ASC_NODE": 157.086, "ARG_OF_PERICENTER": 63.691, "MEAN_ANOMALY": 296.4563, "EPHEMERIS_TYPE": 0, "CLASSIFICATION_TYPE": "U", "NORAD_CAT_ID": 35681, "ELEMENT_SET_NO": 999, "REV_AT_EPOCH": 88090, "BSTAR": 0.00014227281, "MEAN_MOTION_DOT": 9.09e-06, "MEAN_MOTION_DDOT": 0}, "tle": {"line1": "1 35681U 09041A   25356.95802917  .00000909  00000+0  14227-3 0  9995", "line2": "2 35681  97.7151 157.0860 0002560  63.6910 296.4563 14.74967944880905"}}, "geometry": {"type": "Point", "coordinates": [-32.93517387253498, -53.2278340425992]}}, {"type": "Feature", "properties": {"norad_id": 35682, "name": "DUBAISAT-1", "group": "resource", "lat": 23.904798671769036, "lon": -48.50322748068953, "alt_km": 649.1001308232844, "timestamp": "2025-12-23T09:49:06.733111+00:00", "meta": {"OBJECT_NAME": "DUBAISAT-1", "OBJECT_ID": "2009-041B", "EPOCH": "2025-12-22T20:05:08.128896", "MEAN_MOTION": 14.74629962, "ECCENTRICITY": 0.00092606, "INCLINATION": 97.9798, "RA_OF_ASC_NODE": 127.3684, "ARG_OF_PERICENTER": 278.2214, "MEAN_ANOMALY": 81.7944, "EPHEMERIS_TYPE": 0, "CLASSIFICATION_TYPE": "U", "NORAD_CAT_ID": 35682, "ELEMENT_SET_NO": 999, "REV_AT_EPOCH": 87910, "BSTAR": 0.00017439106, "MEAN_MOTION_DOT": 1.113e-05, "MEAN_MOTION_DDOT": 0}, "tle": {"line1": "1 35682U 09041B   25356.83689964  .00001113  00000+0  17439-3 0  9994", "line2": "2 35682  97.9798 127.3684 0009260 278.2214  81.7944 14.74629962879107"}}, "geometry": {"type": "Point", "coordinates": [-48.50322748068953, 23.904798671769036]}}, {"type": "Feature", "properties": {"norad_id": 35931, "name": "OCEANSAT-2", "group": "resource", "lat": -23.02067026553804, "lon": 0.4490416063708314, "alt_km": 891.5842323879006, "timestamp": "2025-12-23T09:49:06.733122+00:00", "meta": {"OBJECT_NAME": "OCEANSAT-2", "OBJECT_ID": "2009-051A", "EPOCH": "2025-12-22T23:38:05.773056", "MEAN_MOTION": 13.99622932, "ECCENTRICITY": 0.00159544, "INCLINATION": 98.2217, "RA_OF_ASC_NODE": 356.5458, "ARG_OF_PERICENTER": 18.1567, "MEAN_ANOMALY": 342.0167, "EPHEMERIS_TYPE": 0, "CLASSIFICATION_TYPE": "U", "NORAD_CAT_ID": 35931, "ELEMENT_SET_NO": 999, "REV_AT_EPOCH": 85468, "BSTAR": -2.3224169e-05, "MEAN_MOTION_DOT": -7.1e-07, "MEAN_MOTION_DDOT": 0}, "tle": {"line1": "1 35931U 09051A   25356.98478904 -.00000071  00000+0 -23224-4 0  9992", "line2": "2 35931  98.2217 356.5458 0015954  18.1567 342.0167 13.99622932854680"}}, "geometry": {"type": "Point", "coordinates": [0.4490416063708314, -23.02067026553804]}}, {"type": "Feature", "properties": {"norad_id": 35946, "name": "WORLDVIEW-2 (WV-2)", "group": "resource", "lat": 58.81598236324271, "lon": -97.3868254241458, "alt_km": 759.4620014170359, "timestamp": "2025-12-23T09:49:06.733132+00:00", "meta": {"OBJECT_NAME": "WORLDVIEW-2 (WV-2)", "OBJECT_ID": "2009-055A", "EPOCH": "2025-12-22T21:34:14.215296", "MEAN_MOTION": 14.37728388, "ECCENTRICITY": 0.00048176, "INCLINATION": 98.4775, "RA_OF_ASC_NODE": 67.8439, "ARG_OF_PERICENTER": 45.7646, "MEAN_ANOMALY": 314.3936, "EPHEMERIS_TYPE": 0, "CLASSIFICATION_TYPE": "U", "NORAD_CAT_ID": 35946, "ELEMENT_SET_NO": 999, "REV_AT_EPOCH": 85031, "BSTAR": 7.4063131e-05, "MEAN_MOTION_DOT": 1.79e-06, "MEAN_MOTION_DDOT": 0}, "tle": {"line1": "1 35946U 09055A   25356.89877564  .00000179  00000+0  74063-4 0  9991", "line2": "2 35946  98.4775  67.8439 0004817  45.7646 314.3936 14.37728388850315"}}, "geometry": {"type": "Point", "coordinates": [-97.3868254241458, 58.81598236324271]}}, {"type": "Feature", "properties": {"norad_id": 36036, "name": "SMOS", "group": "resource", "lat": -52.18356274091259, "lon": -8.726956815730732, "alt_km": 766.9273612103998, "timestamp": "2025-12-23T09:49:06.733143+00:00", "meta": {"OBJECT_NAME": "SMOS", "OBJECT_ID": "2009-059A", "EPOCH": "2025-12-22T19:23:47.927904", "MEAN_MOTION": 14.39749777, "ECCENTRICITY": 0.00010604, "INCLINATION": 98.4381, "RA_OF_ASC_NODE": 181.7075, "ARG_OF_PERICENTER": 83.478, "MEAN_ANOMALY": 276.6529, "EPHEMERIS_TYPE": 0, "CLASSIFICATION_TYPE": "U", "NORAD_CAT_ID": 36036, "ELEMENT_SET_NO": 999, "REV_AT_EPOCH": 84807, "BSTAR": 0.00012283396, "MEAN_MOTION_DOT": 3.41e-06, "MEAN_MOTION_DDOT": 0}, "tle": {"line1": "1 36036U 09059A   25356.80819361  .00000341  00000+0  12283-3 0  9994", "line2": "2 36036  98.4381 181.7075 0001060  83.4780 276.6529 14.39749777848071"}}, "geometry": {"type": "Point", "coordinates": [-8.726956815730732, -52.18356274091259]}}, {"type": "Feature", "properties": {"norad_id": 36110, "name": "YAOGAN-7", "group": "resource", "lat": 72.8137459064927, "lon": -148.02784954080815, "alt_km": 645.6338751756575, "timestamp": "2025-12-23T09:49:06.733153+00:00", "meta": {"OBJECT_NAME": "YAOGAN-7", "OBJECT_ID": "2009-069A", "EPOCH": "2025-12-22T15:36:15.487200", "MEAN_MOTION": 14.77746064, "ECCENTRICITY": 0.00234069, "INCLINATION": 98.0295, "RA_OF_ASC_NODE": 238.3715, "ARG_OF_PERICENTER": 247.4675, "MEAN_ANOMALY": 112.4058, "EPHEMERIS_TYPE": 0, "CLASSIFICATION_TYPE": "U", "NORAD_CAT_ID": 36110, "ELEMENT_SET_NO": 999, "REV_AT_EPOCH": 86355, "BSTAR": 8.4897324e-05, "MEAN_MOTION_DOT": 5.58e-06, "MEAN_MOTION_DDOT": 0}, "tle": {"line1": "1 36110U 09069A   25356.65017925  .00000558  00000+0  84897-4 0  9998", "line2": "2 36110  98.0295 238.3715 0023406 247.4675 112.4058 14.77746064863559"}}, "geometry": {"type": "Point", "coordinates": [-148.02784954080815, 72.8137459064927]}}, {"type": "Feature", "properties": {"norad_id": 36605, "name": "TANDEM-X", "group": "resource", "lat": 70.23110062284555, "lon": -156.03237948209994, "alt_km": 500.5537599953059, "timestamp": "2025-12-23T09:49:06.733163+00:00", "meta": {"OBJECT_NAME": "TANDEM-X", "OBJECT_ID": "2010-030A", "EPOCH": "2025-12-22T14:22:24.829536", "MEAN_MOTION": 15.19158129, "ECCENTRICITY": 0.0001799, "INCLINATION": 97.4444, "RA_OF_ASC_NODE": 1.8349, "ARG_OF_PERICENTER": 78.6886, "MEAN_ANOMALY": 281.4551, "EPHEMERIS_TYPE": 0, "CLASSIFICATION_TYPE": "U", "NORAD_CAT_ID": 36605, "ELEMENT_SET_NO": 999, "REV_AT_EPOCH": 85983, "BSTAR": 3.9682032e-05, "MEAN_MOTION_DOT": 7.67e-06, "MEAN_MOTION_DDOT": 0}, "tle": {"line1": "1 36605U 10030A   25356.59889849  .00000767  00000+0  39682-4 0  9996", "line2": "2 36605  97.4444   1.8349 0001799  78.6886 281.4551 15.19158129859839"}}, "geometry": {"type": "Point", "coordinates": [-156.03237948209994, 70.23110062284555]}}, {"type": "Feature", "properties": {"norad_id": 36795, "name": "CARTOSAT-2B", "group": "resource", "lat": 39.5353490437369, "lon": 39.60954577281746, "alt_km": 621.4141252252712, "timestamp": "2025-12-23T09:49:06.733174+00:00", "meta": {"OBJECT_NAME": "CARTOSAT-2B", "OBJECT_ID": "2010-035A", "EPOCH": "2025-12-22T23:53:41.268192", "MEAN_MOTION": 14.78738523, "ECCENTRICITY": 0.00127158, "INCLINATION": 97.7838, "RA_OF_ASC_NODE": 45.6921, "ARG_OF_PERICENTER": 46.3436, "MEAN_ANOMALY": 313.8828, "EPHEMERIS_TYPE": 0, "CLASSIFICATION_TYPE": "U", "NORAD_CAT_ID": 36795, "ELEMENT_SET_NO": 999, "REV_AT_EPOCH": 83381, "BSTAR": 7.3356735e-05, "MEAN_MOTION_DOT": 4.89e-06, "MEAN_MOTION_DDOT": 0}, "tle": {"line1": "1 36795U 10035A   25356.99561653  .00000489  00000+0  73357-4 0  9993", "line2": "2 36795  97.7838  45.6921 0012715  46.3436 313.8828 14.78738523833817"}}, "geometry": {"type": "Point", "coordinates": [39.60954577281746, 39.5353490437369]}}, {"type": "Feature", "properties": {"norad_id": 36834, "name": "YAOGAN-10", "group": "resource", "lat": -13.543521354510215, "lon": 19.069079577537334, "alt_km": 619.3562588144468, "timestamp": "2025-12-23T09:49:06.733184+00:00", "meta": {"OBJECT_NAME": "YAOGAN-10", "OBJECT_ID": "2010-038A", "EPOCH": "2025-12-23T00:18:37.980576", "MEAN_MOTION": 14.84641808, "ECCENTRICITY": 0.00013097, "INCLINATION": 97.9128, "RA_OF_ASC_NODE": 16.756, "ARG_OF_PERICENTER": 80.4046, "MEAN_ANOMALY": 309.9552, "EPHEMERIS_TYPE": 0, "CLASSIFICATION_TYPE": "U", "NORAD_CAT_ID": 36834, "ELEMENT_SET_NO": 999, "REV_AT_EPOCH": 83106, "BSTAR": 0.00018197486, "MEAN_MOTION_DOT": 1.485e-05, "MEAN_MOTION_DDOT": 0}, "tle": {"line1": "1 36834U 10038A   25357.01293959  .00001485  00000+0  18197-3 0  9992", "line2": "2 36834  97.9128  16.7560 0001309  80.4046 309.9552 14.84641808831067"}}, "geometry": {"type": "Point", "coordinates": [19.069079577537334, -13.543521354510215]}}]}